{
  "type": "FeatureCollection",
  "features": [
    {
      "type": "Feature",
      "properties": {
        "norad_id": 34955,
        "name": "COSMOS 2251 DEB",
        "group": "cosmos-2251-debris",
        "lat": 41.799510465481,
        "lon": 70.72231161276503,
        "alt_km": 613.1269788287418,
        "timestamp": "2025-12-03T08:58:46.398527+00:00",
        "meta_object_name": "COSMOS 2251 DEB",
        "meta_object_id": "1993-036AEJ",
        "meta_epoch": "2025-12-03T01:58:24.292704",
        "meta_mean_motion": 15.00189355,
        "meta_eccentricity": 0.0078305,
        "meta_inclination": 74.0373,
        "meta_ra_of_asc_node": 266.1437,
        "meta_arg_of_pericenter": 338.174,
        "meta_mean_anomaly": 21.6115,
        "meta_ephemeris_type": 0,
        "meta_classification_type": "U",
        "meta_norad_cat_id": 34955,
        "meta_element_set_no": 999,
        "meta_rev_at_epoch": 89889,
        "meta_bstar": 0.0013092,
        "meta_mean_motion_dot": 0.00017463,
        "meta_mean_motion_ddot": 0,
        "tle_line1": "1 34955U 93036AEJ 25337.08222561  .00017463  00000+0  13092-2 0  9990",
        "tle_line2": "2 34955  74.0373 266.1437 0078305 338.1740  21.6115 15.00189355898895"
      },
      "geometry": {
        "type": "Point",
        "coordinates": [
          70.72231161276503,
          41.799510465481
        ]
      }
    },
    {
      "type": "Feature",
      "properties": {
        "norad_id": 34962,
        "name": "COSMOS 2251 DEB",
        "group": "cosmos-2251-debris",
        "lat": -55.836118561935706,
        "lon": -174.09859637212514,
        "alt_km": 731.8874049183605,
        "timestamp": "2025-12-03T08:58:46.398538+00:00",
        "meta_object_name": "COSMOS 2251 DEB",
        "meta_object_id": "1993-036AER",
        "meta_epoch": "2025-12-02T01:42:53.375904",
        "meta_mean_motion": 14.46464357,
        "meta_eccentricity": 0.00185426,
        "meta_inclination": 74.0305,
        "meta_ra_of_asc_node": 213.2902,
        "meta_arg_of_pericenter": 327.8619,
        "meta_mean_anomaly": 32.1407,
        "meta_ephemeris_type": 0,
        "meta_classification_type": "U",
        "meta_norad_cat_id": 34962,
        "meta_element_set_no": 999,
        "meta_rev_at_epoch": 87424,
        "meta_bstar": 0.00050722321,
        "meta_mean_motion_dot": 1.801e-05,
        "meta_mean_motion_ddot": 0,
        "tle_line1": "1 34962U 93036AER 25336.07145111  .00001801  00000+0  50722-3 0  9992",
        "tle_line2": "2 34962  74.0305 213.2902 0018542 327.8619  32.1407 14.46464357874246"
      },
      "geometry": {
        "type": "Point",
        "coordinates": [
          -174.09859637212514,
          -55.836118561935706
        ]
      }
    },
    {
      "type": "Feature",
      "properties": {
        "norad_id": 34963,
        "name": "COSMOS 2251 DEB",
        "group": "cosmos-2251-debris",
        "lat": 45.09011637877,
        "lon": 76.74862850761794,
        "alt_km": 744.3151242233589,
        "timestamp": "2025-12-03T08:58:46.398548+00:00",
        "meta_object_name": "COSMOS 2251 DEB",
        "meta_object_id": "1993-036AES",
        "meta_epoch": "2025-12-02T22:49:54.886080",
        "meta_mean_motion": 14.50908636,
        "meta_eccentricity": 0.0042456,
        "meta_inclination": 74.1723,
        "meta_ra_of_asc_node": 61.0035,
        "meta_arg_of_pericenter": 259.1817,
        "meta_mean_anomaly": 100.4565,
        "meta_ephemeris_type": 0,
        "meta_classification_type": "U",
        "meta_norad_cat_id": 34963,
        "meta_element_set_no": 999,
        "meta_rev_at_epoch": 86659,
        "meta_bstar": 0.0017899,
        "meta_mean_motion_dot": 7.128e-05,
        "meta_mean_motion_ddot": 0,
        "tle_line1": "1 34963U 93036AES 25336.95132970  .00007128  00000+0  17899-2 0  9994",
        "tle_line2": "2 34963  74.1723  61.0035 0042456 259.1817 100.4565 14.50908636866597"
      },
      "geometry": {
        "type": "Point",
        "coordinates": [
          76.74862850761794,
          45.09011637877
        ]
      }
    },
    {
      "type": "Feature",
      "properties": {
        "norad_id": 34964,
        "name": "COSMOS 2251 DEB",
        "group": "cosmos-2251-debris",
        "lat": -31.41179453744036,
        "lon": -5.968152189461712,
        "alt_km": 928.9564997830057,
        "timestamp": "2025-12-03T08:58:46.398558+00:00",
        "meta_object_name": "COSMOS 2251 DEB",
        "meta_object_id": "1993-036AET",
        "meta_epoch": "2025-12-01T10:51:07.970112",
        "meta_mean_motion": 14.00515212,
        "meta_eccentricity": 0.02132053,
        "meta_inclination": 73.9732,
        "meta_ra_of_asc_node": 7.4842,
        "meta_arg_of_pericenter": 228.1536,
        "meta_mean_anomaly": 130.1229,
        "meta_ephemeris_type": 0,
        "meta_classification_type": "U",
        "meta_norad_cat_id": 34964,
        "meta_element_set_no": 999,
        "meta_rev_at_epoch": 84320,
        "meta_bstar": 0.0017784594,
        "meta_mean_motion_dot": 3.191e-05,
        "meta_mean_motion_ddot": 0,
        "tle_line1": "1 34964U 93036AET 25335.45217558  .00003191  00000+0  17785-2 0  9995",
        "tle_line2": "2 34964  73.9732   7.4842 0213205 228.1536 130.1229 14.00515212843200"
      },
      "geometry": {
        "type": "Point",
        "coordinates": [
          -5.968152189461712,
          -31.41179453744036
        ]
      }
    },
    {
      "type": "Feature",
      "properties": {
        "norad_id": 34965,
        "name": "COSMOS 2251 DEB",
        "group": "cosmos-2251-debris",
        "lat": -32.50934441443539,
        "lon": -23.498427888700007,
        "alt_km": 726.5109107772314,
        "timestamp": "2025-12-03T08:58:46.398568+00:00",
        "meta_object_name": "COSMOS 2251 DEB",
        "meta_object_id": "1993-036AEU",
        "meta_epoch": "2025-12-02T03:49:02.675136",
        "meta_mean_motion": 14.48660518,
        "meta_eccentricity": 0.00264925,
        "meta_inclination": 74.0504,
        "meta_ra_of_asc_node": 148.2743,
        "meta_arg_of_pericenter": 277.1444,
        "meta_mean_anomaly": 82.6704,
        "meta_ephemeris_type": 0,
        "meta_classification_type": "U",
        "meta_norad_cat_id": 34965,
        "meta_element_set_no": 999,
        "meta_rev_at_epoch": 86960,
        "meta_bstar": 0.0003671965,
        "meta_mean_motion_dot": 1.361e-05,
        "meta_mean_motion_ddot": 0,
        "tle_line1": "1 34965U 93036AEU 25336.15905874  .00001361  00000+0  36720-3 0  9997",
        "tle_line2": "2 34965  74.0504 148.2743 0026492 277.1444  82.6704 14.48660518869609"
      },
      "geometry": {
        "type": "Point",
        "coordinates": [
          -23.498427888700007,
          -32.50934441443539
        ]
      }
    },
    {
      "type": "Feature",
      "properties": {
        "norad_id": 34967,
        "name": "COSMOS 2251 DEB",
        "group": "cosmos-2251-debris",
        "lat": -73.33227238862966,
        "lon": -162.16175884543674,
        "alt_km": 773.6152664424926,
        "timestamp": "2025-12-03T08:58:46.398578+00:00",
        "meta_object_name": "COSMOS 2251 DEB",
        "meta_object_id": "1993-036AEW",
        "meta_epoch": "2025-12-01T02:30:41.683104",
        "meta_mean_motion": 14.44168549,
        "meta_eccentricity": 0.00374829,
        "meta_inclination": 73.9933,
        "meta_ra_of_asc_node": 275.5612,
        "meta_arg_of_pericenter": 64.8384,
        "meta_mean_anomaly": 295.6653,
        "meta_ephemeris_type": 0,
        "meta_classification_type": "U",
        "meta_norad_cat_id": 34967,
        "meta_element_set_no": 999,
        "meta_rev_at_epoch": 64789,
        "meta_bstar": 0.00079995093,
        "meta_mean_motion_dot": 2.741e-05,
        "meta_mean_motion_ddot": 0,
        "tle_line1": "1 34967U 93036AEW 25335.10464911  .00002741  00000+0  79995-3 0  9999",
        "tle_line2": "2 34967  73.9933 275.5612 0037482  64.8384 295.6653 14.44168549647896"
      },
      "geometry": {
        "type": "Point",
        "coordinates": [
          -162.16175884543674,
          -73.33227238862966
        ]
      }
    },
    {
      "type": "Feature",
      "properties": {
        "norad_id": 34968,
        "name": "COSMOS 2251 DEB",
        "group": "cosmos-2251-debris",
        "lat": -20.22243562121055,
        "lon": -101.13032085166256,
        "alt_km": 659.4975458886902,
        "timestamp": "2025-12-03T08:58:46.398611+00:00",
        "meta_object_name": "COSMOS 2251 DEB",
        "meta_object_id": "1993-036AEX",
        "meta_epoch": "2025-12-02T01:48:56.339712",
        "meta_mean_motion": 14.59372646,
        "meta_eccentricity": 0.00862303,
        "meta_inclination": 74.039,
        "meta_ra_of_asc_node": 267.3956,
        "meta_arg_of_pericenter": 30.5548,
        "meta_mean_anomaly": 330.0599,
        "meta_ephemeris_type": 0,
        "meta_classification_type": "U",
        "meta_norad_cat_id": 34968,
        "meta_element_set_no": 999,
        "meta_rev_at_epoch": 88322,
        "meta_bstar": 0.00022982614,
        "meta_mean_motion_dot": 1.114e-05,
        "meta_mean_motion_ddot": 0,
        "tle_line1": "1 34968U 93036AEX 25336.07565208  .00001114  00000+0  22983-3 0  9996",
        "tle_line2": "2 34968  74.0390 267.3956 0086230  30.5548 330.0599 14.59372646883226"
      },
      "geometry": {
        "type": "Point",
        "coordinates": [
          -101.13032085166256,
          -20.22243562121055
        ]
      }
    }
  ]
}